1 71823U          19305.74513889  .00000000  00000-0  00000-0 0 00000
2 71823 097.6600 169.0630 0000000 000.0000 105.0010 15.01920000000000
1 71823U          19306.01388889  .00000000  00000-0  00000-0 0 00000
2 71823 097.6600 169.3270 0000000 000.0000 116.2510 15.01920000000000
1 71823U          19306.25763889  .00000000  00000-0  00000-0 0 00000
2 71823 097.6590 169.5680 0000000 000.0000 352.5010 15.01920000000000
1 71823U          19306.68680556  .00000000  00000-0  00000-0 0 00000
2 71823 097.6580 169.9910 0000000 000.0000 150.0010 15.01920000000000
1 71823U          19306.92291667  .00000000  00000-0  00000-0 0 00000
2 71823 097.6580 170.2230 0000000 000.0000 345.0010 15.01920000000000
1 71823U          19307.38888889  .00000000  00000-0  00000-0 0 00000
2 71823 097.6570 170.6830 0000000 000.0000 341.2520 15.01920000000000
1 71823U          19307.58888889  .00000000  00000-0  00000-0 0 00000
2 71823 097.6570 170.8800 0000000 000.0000 341.2520 15.01920000000000
1 71823U          19307.92916667  .00000000  00000-0  00000-0 0 00000
2 71823 097.6560 171.2150 0000000 000.0000 018.7520 15.01920000000000
1 71823U          19308.38125000  .00000000  00000-0  00000-0 0 00000
2 71823 097.6550 171.6610 0000000 000.0000 300.0020 15.01920000000000
1 71823U          19308.67847222  .00000000  00000-0  00000-0 0 00000
2 71823 097.6550 171.9540 0000000 000.0000 105.0020 15.01920000000000
1 71823U          19309.02916667  .00000000  00000-0  00000-0 0 00000
2 71823 097.6540 172.2990 0000000 000.0000 198.7520 15.01920000000000
1 71823U          19309.38055556  .00000000  00000-0  00000-0 0 00000
2 71823 097.6530 172.6460 0000000 000.0000 296.2520 15.01920000000000
1 71823U          19309.61388889  .00000000  00000-0  00000-0 0 00000
2 71823 097.6530 172.8760 0000000 000.0000 116.2520 15.01920000000000
1 71823U          19309.94444444  .00000000  00000-0  00000-0 0 00000
2 71823 097.6520 173.2020 0000000 000.0000 101.2520 15.01920000000000
1 71823U          19310.34930556  .00000000  00000-0  00000-0 0 00000
2 71823 097.6520 173.6010 0000000 000.0000 127.5020 15.01920000000000
1 71823U          19310.60000000  .00000000  00000-0  00000-0 0 00000
2 71823 097.6510 173.8480 0000000 000.0000 041.2530 15.01920000000000
1 71823U          19310.94791667  .00000000  00000-0  00000-0 0 00000
2 71823 097.6500 174.1910 0000000 000.0000 120.0030 15.01920000000000
1 71823U          19311.28194444  .00000000  00000-0  00000-0 0 00000
2 71823 097.6500 174.5200 0000000 000.0000 123.7530 15.01920000000000
1 71823U          19311.67291667  .00000000  00000-0  00000-0 0 00000
2 71823 097.6490 174.9050 0000000 000.0000 075.0030 15.01920000000000
1 71823U          19311.89583333  .00000000  00000-0  00000-0 0 00000
2 71823 097.6490 175.1250 0000000 000.0000 198.7530 15.01914300000000
1 71823U          19312.27916667  .00000000  00000-0  00000-0 0 00000
2 71823 097.6480 175.5030 0000000 000.0000 108.7530 15.01914300000000
1 71823U          19312.48125000  .00000000  00000-0  00000-0 0 00000
2 71823 097.6480 175.7020 0000000 000.0000 120.0030 15.01914300000000
1 71823U          19312.83680556  .00000000  00000-0  00000-0 0 00000
2 71823 097.6470 176.0520 0000000 000.0000 240.0030 15.01914300000000
1 71823U          19313.17013889  .00000000  00000-0  00000-0 0 00000
2 71823 097.6460 176.3810 0000000 000.0000 240.0030 15.01914300000000
1 71823U          19313.51666667  .00000000  00000-0  00000-0 0 00000
2 71823 097.6460 176.7220 0000000 000.0000 311.2530 15.01914300000000
1 71823U          19313.87430556  .00000000  00000-0  00000-0 0 00000
2 71823 097.6450 177.0750 0000000 000.0000 082.5030 15.01914300000000
1 71823U          19314.14861111  .00000000  00000-0  00000-0 0 00000
2 71823 097.6450 177.3450 0000000 000.0000 123.7530 15.01914300000000
1 71823U          19314.64513889  .00000000  00000-0  00000-0 0 00000
2 71823 097.6440 177.8350 0000000 000.0000 285.0030 15.01914300000000
1 71823U          19314.85208333  .00000000  00000-0  00000-0 0 00000
2 71823 097.6430 178.0390 0000000 000.0000 322.5030 15.01914300000000
1 71823U          19315.22847222  .00000000  00000-0  00000-0 0 00000
2 71823 097.6430 178.4100 0000000 000.0000 195.0030 15.01914300000000
1 71823U          19315.53819444  .00000000  00000-0  00000-0 0 00000
2 71823 097.6420 178.7150 0000000 000.0000 067.5030 15.01914300000000
1 71823U          19315.82152778  .00000000  00000-0  00000-0 0 00000
2 71823 097.6410 178.9940 0000000 000.0000 157.5030 15.01914300000000
1 71823U          19316.26041667  .00000000  00000-0  00000-0 0 00000
2 71823 097.6410 179.4270 0000000 000.0000 007.5030 15.01914300000000
1 71823U          19316.50555556  .00000000  00000-0  00000-0 0 00000
2 71823 097.6400 179.6680 0000000 000.0000 251.2530 15.01914300000000
1 71823U          19316.95833333  .00000000  00000-0  00000-0 0 00000
2 71823 097.6390 180.1150 0000000 000.0000 176.2530 15.01914300000000
1 71823U          19317.19722222  .00000000  00000-0  00000-0 0 00000
2 71823 097.6390 180.3500 0000000 000.0000 026.2530 15.01914300000000
1 71823U          19317.59722222  .00000000  00000-0  00000-0 0 00000
2 71823 097.6380 180.7440 0000000 000.0000 026.2530 15.01914300000000
1 71823U          19317.95416667  .00000000  00000-0  00000-0 0 00000
2 71823 097.6370 181.0960 0000000 000.0000 153.7530 15.01914300000000
1 71823U          19318.29513889  .00000000  00000-0  00000-0 0 00000
2 71823 097.6370 181.4320 0000000 000.0000 195.0030 15.01914300000000
1 71823U          19318.51527778  .00000000  00000-0  00000-0 0 00000
2 71823 097.6360 181.6490 0000000 000.0000 303.7530 15.01914300000000
1 71823U          19318.89583333  .00000000  00000-0  00000-0 0 00000
2 71823 097.6360 182.0240 0000000 000.0000 198.7530 15.01914300000000
1 71823U          19318.89583333  .00000000  00000-0  00000-0 0 00000
2 71823 097.6360 182.0240 0000000 000.0000 198.7530 15.01914300000000
1 71823U          19319.17986111  .00000000  00000-0  00000-0 0 00000
2 71823 097.6350 182.3040 0000000 000.0000 292.5030 15.01914300000000
1 71823U          19319.58472222  .00000000  00000-0  00000-0 0 00000
2 71823 097.6340 182.7030 0000000 000.0000 318.7530 15.01914300000000
1 71823U          19319.81875000  .00000000  00000-0  00000-0 0 00000
2 71823 097.6340 182.9340 0000000 000.0000 142.5030 15.01914300000000
1 71823U          19320.29791667  .00000000  00000-0  00000-0 0 00000
2 71823 097.6330 183.4060 0000000 000.0000 210.0030 15.01914300000000
1 71823U          19320.53333333  .00000000  00000-0  00000-0 0 00000
2 71823 097.6330 183.6380 0000000 000.0000 041.2530 15.01914300000000
1 71823U          19320.87361111  .00000000  00000-0  00000-0 0 00000
2 71823 097.6320 183.9730 0000000 000.0000 078.7530 15.01914300000000
1 71823U          19321.19861111  .00000000  00000-0  00000-0 0 00000
2 71823 097.6310 184.2940 0000000 000.0000 033.7530 15.01914300000000
1 71823U          19321.63263889  .00000000  00000-0  00000-0 0 00000
2 71823 097.6310 184.7220 0000000 000.0000 217.5030 15.01914300000000
1 71823U          19321.81250000  .00000000  00000-0  00000-0 0 00000
2 71823 097.6300 184.8990 0000000 000.0000 108.7530 15.01914300000000
1 71823U          19322.21388889  .00000000  00000-0  00000-0 0 00000
2 71823 097.6300 185.2940 0000000 000.0000 116.2530 15.01914300000000
1 71823U          19322.48750000  .00000000  00000-0  00000-0 0 00000
2 71823 097.6290 185.5640 0000000 000.0000 153.7530 15.01914300000000
1 71823U          19322.84375000  .00000000  00000-0  00000-0 0 00000
2 71823 097.6280 185.9150 0000000 000.0000 277.5030 15.01914300000000
1 71823U          19323.15486111  .00000000  00000-0  00000-0 0 00000
2 71823 097.6280 186.2220 0000000 000.0000 157.5030 15.01914300000000
1 71823U          19323.62430556  .00000000  00000-0  00000-0 0 00000
2 71823 097.6270 186.6850 0000000 000.0000 172.5030 15.01914300000000
1 71823U          19323.87847222  .00000000  00000-0  00000-0 0 00000
2 71823 097.6260 186.9350 0000000 000.0000 105.0030 15.01914300000000
1 71823U          19324.19444444  .00000000  00000-0  00000-0 0 00000
2 71823 097.6260 187.2460 0000000 000.0000 011.2530 15.01914300000000
1 71823U          19324.55277778  .00000000  00000-0  00000-0 0 00000
2 71823 097.6250 187.6000 0000000 000.0000 146.2530 15.01914300000000
1 71823U          19324.83541667  .00000000  00000-0  00000-0 0 00000
2 71823 097.6250 187.8780 0000000 000.0000 232.5020 15.01914300000000
1 71823U          19325.16180556  .00000000  00000-0  00000-0 0 00000
2 71823 097.6240 188.2000 0000000 000.0000 195.0020 15.01914300000000
1 71823U          19325.47986111  .00000000  00000-0  00000-0 0 00000
2 71823 097.6240 188.5130 0000000 000.0000 112.5020 15.01914300000000
1 71823U          19325.89583333  .00000000  00000-0  00000-0 0 00000
2 71823 097.6230 188.9230 0000000 000.0000 198.7520 15.01914300000000
1 71823U          19325.97777778  .00000000  00000-0  00000-0 0 00000
2 71823 097.6230 189.0040 0000000 000.0000 281.2520 15.01914300000000
1 71823U          19326.25763889  .00000000  00000-0  00000-0 0 00000
2 71823 097.6220 189.2800 0000000 000.0000 352.5020 15.01914300000000
1 71823U          19326.53194444  .00000000  00000-0  00000-0 0 00000
2 71823 097.6220 189.5500 0000000 000.0000 033.7520 15.01914300000000
1 71823U          19326.97222222  .00000000  00000-0  00000-0 0 00000
2 71823 097.6210 189.9840 0000000 000.0000 251.2520 15.01914300000000
1 71823U          19327.23402778  .00000000  00000-0  00000-0 0 00000
2 71823 097.6200 190.2420 0000000 000.0000 225.0020 15.01914300000000
1 71823U          19327.48125000  .00000000  00000-0  00000-0 0 00000
2 71823 097.6200 190.4860 0000000 000.0000 120.0020 15.01914300000000
1 71823U          19327.94861111  .00000000  00000-0  00000-0 0 00000
2 71823 097.6190 190.9460 0000000 000.0000 123.7520 15.01914300000000
1 71823U          19328.19583333  .00000000  00000-0  00000-0 0 00000
2 71823 097.6190 191.1900 0000000 000.0000 018.7520 15.01914300000000
